IRIDIUM 126             
1 42809U 17039G   24034.85623768  .00000133  00000+0  40352-4 0  9995
2 42809  86.4004 354.8488 0002164  78.9423 281.2016 14.34218039346078
IRIDIUM 124             
1 42810U 17039H   24034.21950296  .00000485  00000+0  13830-3 0  9996
2 42810  86.4490 291.8705 0001983  91.6552 268.4876 14.43273829350359
IRIDIUM 128             
1 42811U 17039J   24034.49812426  .00000292  00000+0  97230-4 0  9992
2 42811  86.3963  26.5045 0002072  88.0783 272.0650 14.34221200346048
IRIDIUM 121             
1 42812U 17039K   24034.87526610  .00000089  00000+0  24636-4 0  9996
2 42812  86.4005 354.8626 0002225  84.8216 275.3234 14.34217304346060
IRIDIUM 133             
1 42955U 17061A   24034.52984377  .00000278  00000+0  92346-4 0  9992
2 42955  86.3966  26.5880 0002233  86.6776 273.4675 14.34219782330847
IRIDIUM 100             
1 42956U 17061B   24034.52350128  .00000290  00000+0  96519-4 0  9994
2 42956  86.3964  26.5295 0002114  88.7100 271.4338 14.34220764330844
IRIDIUM 122             
1 42957U 17061C   24034.49178493  .00000286  00000+0  94996-4 0  9996
2 42957  86.3964  26.5408 0002043  86.6942 273.4488 14.34220105330840
IRIDIUM 129             
1 42958U 17061D   24034.51715684  .00000272  00000+0  90208-4 0  9996
2 42958  86.3964  26.5881 0002112  86.5936 273.5501 14.34219871330862
